line1,line2,validFromUtcTime
1 00000U 00000E   26001.00000000  .00000000  00000-0  27772-4 0    01,2 00000  88.9258 150.3354 0010145 269.8253 345.0496 13.55283772    03,2026-01-01T00:00:00Z
1 00000U 00000E   26002.00000000  .00000000  00000-0  27772-4 0    02,2 00000  88.9258 150.2261 0010145 266.9150 184.0697 13.55283811    01,2026-01-02T00:00:00Z
